0 PEGASUS R/B
1 27859U 03036B   13281.18775337  .00000658  00000-0  95815-4 0  9912
2 27859 073.9290 304.1263 0007474 028.9425 331.2163 14.78098783547431
0 PEGASUS R/B
1 27859U 03036B   13282.47372080  .00000784  00000-0  11328-3 0  9920
2 27859 073.9288 301.5843 0007535 025.9016 334.2535 14.78104006547627
0 PEGASUS R/B
1 27859U 03036B   13283.48895572  .00000763  00000-0  11041-3 0  9938
2 27859 073.9287 299.5775 0007588 023.6065 336.5456 14.78105152547779
0 PEGASUS R/B
1 27859U 03036B   13285.58710390  .00000824  00000-0  11872-3 0  9957
2 27859 073.9285 295.4300 0007691 018.8457 341.3001 14.78107515548082
0 PEGASUS R/B
1 27859U 03036B   13286.60233503  .00000934  00000-0  13394-3 0  9961
2 27859 073.9285 293.4230 0007744 016.5566 343.5860 14.78108729548239
0 PEGASUS R/B
1 27859U 03036B   13288.15902123  .00001328  00000-0  18832-3 0  9975
2 27859 073.9286 290.3457 0007822 013.0810 347.0566 14.78113884548463
0 PEGASUS R/B
1 27859U 03036B   13289.44497561  .00000971  00000-0  13902-3 0  9980
2 27859 073.9287 287.8034 0007856 010.2828 349.8506 14.78117408548652
0 PEGASUS R/B
1 27859U 03036B   13290.46020071  .00001087  00000-0  15509-3 0  9997
2 27859 073.9289 285.7963 0007924 008.0679 352.0622 14.78118985548800
0 PEGASUS R/B
1 27859U 03036B   13291.47542412  .00001082  00000-0  15434-3 0    02
2 27859 073.9290 283.7894 0007998 005.9468 354.1800 14.78120495548952
0 PEGASUS R/B
1 27859U 03036B   13292.49064639  .00001181  00000-0  16796-3 0    18
2 27859 073.9291 281.7825 0008066 003.8426 356.2809 14.78122338549101
0 PEGASUS R/B
1 27859U 03036B   13293.50586740  .00001232  00000-0  17499-3 0    22
2 27859 073.9292 279.7756 0008118 001.7133 358.4067 14.78124618549251
0 PEGASUS R/B
1 27859U 03036B   13294.52108682  .00001247  00000-0  17714-3 0    37
2 27859 073.9292 277.7688 0008143 359.4556 000.6608 14.78127526549408
